UNKNOWN                 
1 81792U          24196.65574276  .00000180  00000+0  10008-3 0  9991
2 81792  65.8235 172.5122 0897855 152.5546 212.6029 13.07850309 12458
UNKNOWN                 
1 81812U          24196.51549766  .00003228  00000+0  21436-1 0  9996
2 81812 103.5672  43.6276 0362835  33.1435 329.1800 12.33313610476801
UNKNOWN                 
1 81813U          24191.54206355  .00005434  00000+0  13386-2 0  9996
2 81813  99.0143 102.4723 0014103 226.2637 133.7390 14.52583117559939
UNKNOWN                 
1 81816U 77121    24196.25521169  .00000944  00000+0  76591-3 0  9992
2 81816  66.2370 141.4731 0184699 191.6362 168.0415 13.86852821537640
UNKNOWN                 
1 81817U          24182.15771271  .00376921  00000+0  50241-2 0  9994
2 81817  65.6833  85.7194 0094637 257.5768 101.4780 15.51588069  4004
UNKNOWN                 
1 81819U          24189.18717417  .00000383  00000+0  29405-2 0  9992
2 81819 102.1822 273.4868 0033566  21.5852 338.6622 12.46688634482742
UNKNOWN                 
1 81824U          24195.68802564  .00006442  00000+0  26854-2 0  9995
2 81824  65.8471 299.8668 0055706 262.1879  97.2883 14.26023474550585
UNKNOWN                 
1 81833U          24195.89342659  .00000367  00000+0  13126-2 0  9990
2 81833  90.2436 351.4992 0025462 298.2870  61.5679 12.93413706385698
UNKNOWN                 
1 81838U          24195.19591434  .00006502  00000+0  18248-2 0  9992
2 81838  67.7649 169.1813 0037853 161.6160 209.9849 14.46061308558186
UNKNOWN                 
1 81844U          24196.13534556  .00006426  00000+0  27550-2 0  9997
2 81844  82.9185 342.8639 0070876 288.1321  71.2152 14.23354814549111
UNKNOWN                 
1 81845U          24196.53401238  .00004049  00000+0  50266-3 0  9992
2 81845  97.7021  37.2466 0095996 196.6162 193.2450 14.79910347573027
UNKNOWN                 
1 81864U          24190.76181266  .00000980  00000+0  39268-3 0  9997
2 81864  65.6704 204.0377 0788338 239.6212 112.4633 13.29231972481363
UNKNOWN                 
1 81865U 87062    24196.10441316  .00001796  00000+0  15372-2 0  9995
2 81865  82.8052  66.7700 0067975  31.6682 119.8072 13.85391593536932
UNKNOWN                 
1 81873U          24195.13962896  .00006820  00000+0  33214-2 0  9992
2 81873  99.0637 259.1015 0068290 109.8706 250.9844 14.17235436496177
UNKNOWN                 
1 81877U          24186.27340586 -.00035960  00000+0 -46395-1 0  9999
2 81877  65.9327 192.5135 0071704 322.6030  37.0048 13.61390620 52310
UNKNOWN                 
1 81893U 70025    24196.61691275  .00001570  00000+0  17063-2 0  9993
2 81893  99.9874 147.8348 0020338 146.0662 214.1790 13.74536401533103
UNKNOWN                 
1 81899U          24194.85921367  .00001448  00000+0  35369-2 0  9990
2 81899 102.4322 197.9428 0175854 225.4911 133.1709 13.18471567510682
UNKNOWN                 
1 81921U          24194.24800210  .00005148  00000+0  20100-2 0  9990
2 81921  65.7072 147.7883 0873719 334.5516  21.4796 13.11328398960441
UNKNOWN                 
1 81946U 87079    24196.09248204  .00000080  00000+0  43365-3 0  9991
2 81946  66.4224  66.0369 0677962 241.5478 281.9074 12.42321302483693
UNKNOWN                 
1 81947U          24196.16206507  .00007343  00000+0  79960-3 0  9998
2 81947  66.0784 160.0584 0409312  97.5275 267.2510 14.42644087556201
UNKNOWN                 
1 81964U          24196.46354420  .00000458  00000+0  39636-3 0  9994
2 81964  66.5852 100.4146 0029097  62.5841 297.8193 13.95179422542004
UNKNOWN                 
1 81969U          24195.93646875  .00009511  00000+0  84543-3 0  9994
2 81969  86.6660  16.3823 0007239 221.2182 138.8503 14.95986856362492
UNKNOWN                 
1 81995U          24195.83051265  .00011519  00000+0  23999-2 0  9993
2 81995  65.7502  26.0903 0556672 195.9902 162.2965 13.93132990531904
UNKNOWN                 
1 82003U          24196.00485550 -.00009232  00000+0 -14352+0 0  9993
2 82003  46.3306  85.9533 2836448 237.0496  92.5410  8.17776852  6150
UNKNOWN                 
1 82043U          24196.35630579  .00005413  00000+0  16156-2 0  9990
2 82043  97.8967  25.3966 0247414 191.7873 167.7453 14.27107114500033
UNKNOWN                 
1 82044U          24195.75732562  .00001670  00000+0  17200-2 0  9991
2 82044  99.9085 302.4315 0065135 173.8572 186.3390 13.76754775490792
UNKNOWN                 
1 82051U          24195.43591957  .00004867  00000+0  19326-2 0  9997
2 82051  98.7728 270.1854 0103972 338.1296  21.5461 14.26291664498382
UNKNOWN                 
1 82073U          24196.59330744  .00004032  00000+0  11256-2 0  9992
2 82073  97.7508 317.2831 0225130  57.0985 305.1643 14.32836270501026
UNKNOWN                 
1 82139U          24196.42371473  .00003886  00000+0  21109-2 0  9995
2 82139  99.0631 252.6154 0089356  61.3243 299.6874 14.10885263407170
UNKNOWN                 
1 82162U          24196.13814527  .00004088  00000+0  66151-2 0  9992
2 82162 100.4617  87.5033 0063076  36.6560 323.8862 13.48107026434548
UNKNOWN                 
1 82180U          24196.63290824  .00023014  00000+0  41736-2 0  9997
2 82180  65.6705 283.4927 0385521 120.4005 243.5781 14.27782453527402
UNKNOWN                 
1 82189U          24194.49791397  .00000439  00000+0  16483-3 0  9997
2 82189  74.0347 278.0772 0017171 237.3633 122.5863 14.34468329558089
UNKNOWN                 
1 82199U          24196.48646987  .00000645  00000+0  55552-3 0  9992
2 82199  82.9660 261.7468 0038671  65.2525 310.1373 13.84778187538217
UNKNOWN                 
1 82205U          24195.91207156  .00004714  00000+0  13678-2 0  9991
2 82205  63.0100 267.4647 0517783 239.6162 115.2739 13.88123235536104
UNKNOWN                 
1 82223U          24194.08180683  .00002246  00000+0  13232-2 0  9997
2 82223  99.3582  54.4509 0073737 349.4333  10.5281 14.07686071375695
UNKNOWN                 
1 82250U          24194.20222047  .00003582  00000+0  21087-2 0  9993
2 82250  98.9232  97.4732 0074235 214.2267 300.2077 14.07233190543505
UNKNOWN                 
1 82272U          24196.60585630  .00000851  00000+0  28293-2 0  9995
2 82272  67.5261  55.0964 0751377  76.5077 291.8462 12.32893697208294
UNKNOWN                 
1 82284U          24196.50665196  .00039033  00000+0  87091-2 0  9998
2 82284  99.5412 104.2390 0075590 108.6066 252.3355 14.54888242597932
UNKNOWN                 
1 82295U          24192.39285891  .00001112  00000+0  43353-3 0  9994
2 82295  66.6208  74.5251 0134113 231.5782 127.3214 14.28613096505315
UNKNOWN                 
1 82303U          24196.63895729  .00023410  00000+0  34421-1 0  9991
2 82303  81.9304  76.2466 0087216 326.7972  61.4751 13.52576250443757
UNKNOWN                 
1 82311U          24196.64048503  .00001051  00000+0  15616-2 0  9994
2 82311  99.4753 267.1982 0112619 167.7415 192.6503 13.53459170480477
UNKNOWN                 
1 82363U          24190.36338865  .00000113  00000+0  27600-3 0  9992
2 82363  66.9347 231.9328 0454832 139.6490 223.9251 13.14788818221564
UNKNOWN                 
1 82369U 99025    24195.77855854  .00000571  00000+0  42282-3 0  9996
2 82369  98.9338 219.6062 0083086 326.9754  32.6236 13.97644651484944
UNKNOWN                 
1 82381U          24196.05447632  .00015217  00000+0  35887-2 0  9993
2 82381  98.4356  40.3967 0014003 325.6525  34.3765 14.54262352435008
UNKNOWN                 
1 82402U          24196.50344762  .00007280  00000+0  69017-3 0  9991
2 82402  86.6667  17.0249 0007497 227.7984 132.2610 14.93428333377132
UNKNOWN                 
1 82410U          24187.61514717  .00000357  00000+0  43375-3 0  9998
2 82410  66.6562 158.9763 0059140  18.2722 342.0455 13.76709056514432
UNKNOWN                 
1 82432U 93036    24187.20440931  .00002419  00000+0  56142-3 0  9991
2 82432  74.0085 260.1770 0059160 193.4904 166.4681 14.54497937406374
UNKNOWN                 
1 82448U          24195.80009596  .00007102  00000+0  67072-3 0  9998
2 82448  85.8766 113.6744 0008126 336.5679  23.5178 14.93565852359595
UNKNOWN                 
1 82453U          24196.59908177  .00000047  00000+0  67946-3 0  9995
2 82453 102.0973 148.9666 0094617  80.0646 281.1081 12.39634591482106
UNKNOWN                 
1 82458U          24196.39206195  .00005274  00000+0  26661-2 0  9994
2 82458  66.5175  82.3027 0057533 350.8197   9.1835 14.16034560536726
UNKNOWN                 
1 82464U          24195.03940595  .00043765  00000+0  60344-2 0  9993
2 82464  70.9882 113.5433 0051963 158.6119 215.2397 14.77021818559697
UNKNOWN                 
1 82484U          24196.56185471  .00000137  00000+0  25587-3 0  9995
2 82484  99.4129 237.3474 0046139  63.5372 297.0489 13.55469694520694
UNKNOWN                 
1 82494U 93036    24195.74269034  .00013254  00000+0  25898-2 0  9992
2 82494  74.0163 313.8558 0005308 207.9366 152.1517 14.62927431  8731
UNKNOWN                 
1 82500U          24191.26889699  .00004573  00000+0  23693-2 0  9992
2 82500  70.9712  21.8557 0132572 183.2816 176.7451 14.10917849545166
UNKNOWN                 
1 82517U          24192.54302416  .08305019  13721+0  36024-1 0  9991
2 82517  86.3306 292.9881 0025859 303.8358  56.0462 15.91240799 12260
UNKNOWN                 
1 82524U          24196.45037307  .00005753  00000+0  22126-2 0  9996
2 82524  73.2881  84.0635 0159057 231.3391 304.8288 14.23911901503223
UNKNOWN                 
1 82529U          24196.54288219  .00001094  00000+0  17490-2 0  9993
2 82529  99.8033 290.2608 0245075  59.0384 316.6764 13.40081555520573
UNKNOWN                 
1 82545U          24171.67025772 -.00000052  00000+0 -24257-3 0  9996
2 82545  64.8859 327.0010 0169511  32.9857 328.1511 11.30796519377736
UNKNOWN                 
1 82560U          24181.48596346  .00002083  00000+0  17878-2 0  9997
2 82560  99.9843  80.3624 0008313 278.4435 258.8486 13.88086127538085
UNKNOWN                 
1 82561U          24196.44970836  .00011937  00000+0  20882-2 0  9997
2 82561  63.0938 259.9919 0486985  54.0618 323.2783 14.12062312539817
